{
    "links": {
        "self": "http://www.neowsapp.com/rest/v1/neo/3578915?api_key=iIulBulltgU6a56xZRHN4H3l9WmuAYTsLGpBGhQ2"
    },
    "id": "3578915",
    "neo_reference_id": "3578915",
    "name": "(2011 SE25)",
    "designation": "2011 SE25",
    "nasa_jpl_url": "http://ssd.jpl.nasa.gov/sbdb.cgi?sstr=3578915",
    "absolute_magnitude_h": 23.7,
    "estimated_diameter": {
        "kilometers": {
            "estimated_diameter_min": 0.0483676488,
            "estimated_diameter_max": 0.1081533507
        },
        "meters": {
            "estimated_diameter_min": 48.3676488219,
            "estimated_diameter_max": 108.1533506775
        },
        "miles": {
            "estimated_diameter_min": 0.0300542543,
            "estimated_diameter_max": 0.0672033557
        },
        "feet": {
            "estimated_diameter_min": 158.6865169607,
            "estimated_diameter_max": 354.8338390368
        }
    },
    "is_potentially_hazardous_asteroid": false,
    "close_approach_data": [
        {
            "close_approach_date": "1933-02-11",
            "close_approach_date_full": "1933-Feb-11 21:22",
            "epoch_date_close_approach": -1163990280000,
            "relative_velocity": {
                "kilometers_per_second": "21.5471895327",
                "kilometers_per_hour": "77569.8823176761",
                "miles_per_hour": "48198.9082656693"
            },
            "miss_distance": {
                "astronomical": "0.1999082292",
                "lunar": "77.7643011588",
                "kilometers": "29905845.283791804",
                "miles": "18582630.5713187352"
            },
            "orbiting_body": "Earth"
        },
        {
            "close_approach_date": "1934-09-15",
            "close_approach_date_full": "1934-Sep-15 02:54",
            "epoch_date_close_approach": -1113858360000,
            "relative_velocity": {
                "kilometers_per_second": "16.3183602872",
                "kilometers_per_hour": "58746.0970339164",
                "miles_per_hour": "36502.5401264354"
            },
            "miss_distance": {
                "astronomical": "0.0964619131",
                "lunar": "37.5236841959",
                "kilometers": "14430496.735885097",
                "miles": "8966694.8805124586"
            },
            "orbiting_body": "Earth"
        },
        {
            "close_approach_date": "1966-10-03",
            "close_approach_date_full": "1966-Oct-03 14:45",
            "epoch_date_close_approach": -102417300000,
            "relative_velocity": {
                "kilometers_per_second": "29.4011124987",
                "kilometers_per_hour": "105844.0049952239",
                "miles_per_hour": "65767.3485482823"
            },
            "miss_distance": {
                "astronomical": "0.3804016516",
                "lunar": "147.9762424724",
                "kilometers": "56907276.823842092",
                "miles": "35360542.1282091896"
            },
            "orbiting_body": "Earth"
        },
        {
            "close_approach_date": "2010-02-09",
            "close_approach_date_full": "2010-Feb-09 18:13",
            "epoch_date_close_approach": 1265739180000,
            "relative_velocity": {
                "kilometers_per_second": "22.9743565691",
                "kilometers_per_hour": "82707.6836487737",
                "miles_per_hour": "51391.3382094283"
            },
            "miss_distance": {
                "astronomical": "0.2292491365",
                "lunar": "89.1779140985",
                "kilometers": "34295182.519739255",
                "miles": "21310038.258161519"
            },
            "orbiting_body": "Earth"
        },
        {
            "close_approach_date": "2011-09-14",
            "close_approach_date_full": "2011-Sep-14 03:28",
            "epoch_date_close_approach": 1315970880000,
            "relative_velocity": {
                "kilometers_per_second": "14.8736764644",
                "kilometers_per_hour": "53545.2352717018",
                "miles_per_hour": "33270.9268831305"
            },
            "miss_distance": {
                "astronomical": "0.1480591917",
                "lunar": "57.5950255713",
                "kilometers": "22149339.712241679",
                "miles": "13762961.5001820102"
            },
            "orbiting_body": "Earth"
        }
    ],
    "orbital_data": {
        "orbit_id": "5",
        "orbit_determination_date": "2017-04-06 08:52:47",
        "first_observation_date": "2011-09-20",
        "last_observation_date": "2011-10-04",
        "data_arc_in_days": 14,
        "observations_used": 22,
        "orbit_uncertainty": "8",
        "minimum_orbit_intersection": ".0455432",
        "jupiter_tisserand_invariant": "5.186",
        "epoch_osculation": "2455826.5",
        "eccentricity": ".5254566159170535",
        "semi_major_axis": "1.180696305696279",
        "inclination": "16.07248437172642",
        "ascending_node_longitude": "3.450529878759025",
        "orbital_period": "468.6037216319397",
        "perihelion_distance": ".5602916204793453",
        "perihelion_argument": "243.1979842270043",
        "aphelion_distance": "1.801100990913213",
        "perihelion_time": "2455754.672051843948",
        "mean_anomaly": "55.18108402154068",
        "mean_motion": ".7682397372907733",
        "equinox": "J2000",
        "orbit_class": {
            "orbit_class_type": "APO",
            "orbit_class_description": "Near-Earth asteroid orbits which cross the Earth’s orbit similar to that of 1862 Apollo",
            "orbit_class_range": "a (semi-major axis) > 1.0 AU; q (perihelion) < 1.017 AU"
        }
    },
    "is_sentry_object": false
}